[{"OBJECT_NAME":"VSP ROSE","OBJECT_ID":"2024-043AC","EPOCH":"2026-03-09T21:48:06.922944","MEAN_MOTION":15.27746075,"ECCENTRICITY":0.00099339,"INCLINATION":97.5443,"RA_OF_ASC_NODE":203.927,"ARG_OF_PERICENTER":232.2702,"MEAN_ANOMALY":127.7637,"EPHEMERIS_TYPE":0,"CLASSIFICATION_TYPE":"U","NORAD_CAT_ID":59124,"ELEMENT_SET_NO":999,"REV_AT_EPOCH":11182,"BSTAR":0.00025731354,"MEAN_MOTION_DOT":6.907e-5,"MEAN_MOTION_DDOT":0},{"OBJECT_NAME":"STARLINK-31971","OBJECT_ID":"2024-106N","EPOCH":"2026-03-09T03:18:33.766848","MEAN_MOTION":15.27576691,"ECCENTRICITY":0.00012285,"INCLINATION":43.0017,"RA_OF_ASC_NODE":332.4416,"ARG_OF_PERICENTER":272.0986,"MEAN_ANOMALY":87.9725,"EPHEMERIS_TYPE":0,"CLASSIFICATION_TYPE":"U","NORAD_CAT_ID":59934,"ELEMENT_SET_NO":999,"REV_AT_EPOCH":10035,"BSTAR":-4.1123542e-5,"MEAN_MOTION_DOT":-1.393e-5,"MEAN_MOTION_DDOT":0}]
